[{"OBJECT_NAME":"STARLINK-31538","OBJECT_ID":"2024-073Q","EPOCH":"2026-03-09T01:46:13.185408","MEAN_MOTION":15.2758695,"ECCENTRICITY":0.00011192,"INCLINATION":43.0023,"RA_OF_ASC_NODE":321.3062,"ARG_OF_PERICENTER":234.5052,"MEAN_ANOMALY":125.5695,"EPHEMERIS_TYPE":0,"CLASSIFICATION_TYPE":"U","NORAD_CAT_ID":59525,"ELEMENT_SET_NO":999,"REV_AT_EPOCH":10608,"BSTAR":3.147981e-5,"MEAN_MOTION_DOT":6.04e-6,"MEAN_MOTION_DDOT":0},{"OBJECT_NAME":"CZ-6A DEB","OBJECT_ID":"2024-140AAN","EPOCH":"2026-03-09T15:08:07.195776","MEAN_MOTION":15.20547394,"ECCENTRICITY":0.0064261,"INCLINATION":89.3669,"RA_OF_ASC_NODE":306.3092,"ARG_OF_PERICENTER":93.6352,"MEAN_ANOMALY":267.2246,"EPHEMERIS_TYPE":0,"CLASSIFICATION_TYPE":"U","NORAD_CAT_ID":61480,"ELEMENT_SET_NO":999,"REV_AT_EPOCH":8198,"BSTAR":0.0033609,"MEAN_MOTION_DOT":0.00078405,"MEAN_MOTION_DDOT":0}]
